ONEWEB-0118             
1 47264U 20100G   24106.54081098 -.00000197  00000+0 -58272-3 0  9999
2 47264  87.8966 148.4390 0002637  93.9459 266.1971 13.12442774160751
ONEWEB-0119             
1 47265U 20100H   24106.56939704  .00000426  00000+0  11491-2 0  9992
2 47265  87.8965 148.4722 0001964  98.1689 261.9662 13.12440709160738
ONEWEB-0123             
1 47269U 20100M   24106.57099169  .00000437  00000+0  11800-2 0  9995
2 47269  87.8965 148.4706 0002147  94.2084 265.9290 13.12444134160720
ONEWEB-0124             
1 47270U 20100N   24106.55986852  .00000390  00000+0  10483-2 0  9993
2 47270  87.8965 148.4691 0001729  97.0461 263.0864 13.12441470160603
ONEWEB-0125             
1 47271U 20100P   24106.53445150 -.00000331  00000+0 -95535-3 0  9992
2 47271  87.8966 148.4317 0002055  83.6743 276.4620 13.12443455160666
